{
    "links": {
        "self": "http://www.neowsapp.com/rest/v1/neo/3716459?api_key=iIulBulltgU6a56xZRHN4H3l9WmuAYTsLGpBGhQ2"
    },
    "id": "3716459",
    "neo_reference_id": "3716459",
    "name": "(2015 HQ1)",
    "designation": "2015 HQ1",
    "nasa_jpl_url": "http://ssd.jpl.nasa.gov/sbdb.cgi?sstr=3716459",
    "absolute_magnitude_h": 25.0,
    "estimated_diameter": {
        "kilometers": {
            "estimated_diameter_min": 0.02658,
            "estimated_diameter_max": 0.0594346868
        },
        "meters": {
            "estimated_diameter_min": 26.58,
            "estimated_diameter_max": 59.4346868419
        },
        "miles": {
            "estimated_diameter_min": 0.0165160412,
            "estimated_diameter_max": 0.0369309908
        },
        "feet": {
            "estimated_diameter_min": 87.2047272,
            "estimated_diameter_max": 194.9956979785
        }
    },
    "is_potentially_hazardous_asteroid": false,
    "close_approach_data": [
        {
            "close_approach_date": "2015-02-27",
            "close_approach_date_full": "2015-Feb-27 13:36",
            "epoch_date_close_approach": 1425044160000,
            "relative_velocity": {
                "kilometers_per_second": "4.4788711649",
                "kilometers_per_hour": "16123.9361938197",
                "miles_per_hour": "10018.7869088765"
            },
            "miss_distance": {
                "astronomical": "0.068133642",
                "lunar": "26.503986738",
                "kilometers": "10192647.71854254",
                "miles": "6333417.607825452"
            },
            "orbiting_body": "Earth"
        }
    ],
    "orbital_data": {
        "orbit_id": "5",
        "orbit_determination_date": "2017-04-06 08:34:17",
        "first_observation_date": "2015-04-18",
        "last_observation_date": "2015-04-23",
        "data_arc_in_days": 5,
        "observations_used": 15,
        "orbit_uncertainty": "9",
        "minimum_orbit_intersection": ".0659193",
        "jupiter_tisserand_invariant": "4.267",
        "epoch_osculation": "2457131.5",
        "eccentricity": ".3592304055614581",
        "semi_major_axis": "1.609869615862623",
        "inclination": "4.371927489418371",
        "ascending_node_longitude": "197.961866561574",
        "orbital_period": "746.0784270051741",
        "perihelion_distance": "1.031555500855224",
        "perihelion_argument": "310.3550014667813",
        "aphelion_distance": "2.188183730870021",
        "perihelion_time": "2457071.200698997702",
        "mean_anomaly": "29.09579955014131",
        "mean_motion": ".4825229988823995",
        "equinox": "J2000",
        "orbit_class": {
            "orbit_class_type": "AMO",
            "orbit_class_description": "Near-Earth asteroid orbits similar to that of 1221 Amor",
            "orbit_class_range": "1.017 AU < q (perihelion) < 1.3 AU"
        }
    },
    "is_sentry_object": false
}